{
"type": "FeatureCollection",
"name": "export_cables_data",
"crs": { "type": "name", "properties": { "name": "urn:ogc:def:crs:OGC:1.3:CRS84" } },
"features": [
{ "type": "Feature", "properties": { "id": null, "oss": "T2G07", "name": "W2Z01" }, "geometry": { "type": "MultiLineString", "coordinates": [ [ [ -75.4155944287777, 36.91532185856592 ], [ -75.41580585462431, 36.913851819179335 ], [ -75.416495596860301, 36.911562543035942 ], [ -75.417134415500058, 36.909484605547654 ], [ -75.417930411507854, 36.907239924978448 ], [ -75.418760016562459, 36.903875415590342 ], [ -75.419174819089747, 36.899082141941541 ], [ -75.419527128212764, 36.894062520392978 ], [ -75.421040902081259, 36.878287403237017 ], [ -75.422235986714284, 36.871355912365459 ], [ -75.422793692876368, 36.868886070790538 ], [ -75.42351074365618, 36.867292624613171 ], [ -75.425024517524676, 36.865938195362403 ], [ -75.427720785259993, 36.865452867170063 ], [ -75.431333784025284, 36.865237165751239 ], [ -75.453470142132062, 36.864279990705207 ], [ -75.469216345706172, 36.863201483611093 ], [ -75.473233784631773, 36.863039707546974 ], [ -75.474851545272941, 36.862662230064032 ], [ -75.476307529850004, 36.862122976516972 ], [ -75.47835669332882, 36.860936618713446 ], [ -75.480459782162356, 36.858779604525211 ], [ -75.483263900607056, 36.857323619948147 ], [ -75.489086319559561, 36.856033214163809 ], [ -75.497069896131208, 36.854243791828786 ], [ -75.508357021629038, 36.852179073749916 ], [ -75.517854724791846, 36.850183179607008 ], [ -75.535748948142071, 36.84627742124114 ], [ -75.545453123112765, 36.844075055290347 ], [ -75.549926678950328, 36.842560928699172 ], [ -75.551371981605541, 36.842423280827248 ], [ -75.552954932132664, 36.842423280827248 ], [ -75.55715319222638, 36.841735041467622 ], [ -75.561040087525001, 36.84051411599981 ], [ -75.56374968447706, 36.839321893340902 ], [ -75.566926191133035, 36.837812077117768 ], [ -75.568956497243931, 36.836728100126358 ], [ -75.570814743514916, 36.835558093214999 ], [ -75.573085933401671, 36.834181614495748 ], [ -75.575632419032274, 36.832529840032649 ], [ -75.57811008072693, 36.831153361313405 ], [ -75.579211263702319, 36.830052178338008 ], [ -75.580656566357533, 36.828125108131061 ], [ -75.582583636564479, 36.823995671973314 ], [ -75.584235411027578, 36.821518010278666 ], [ -75.585474241874905, 36.819246820391911 ], [ -75.585611889746829, 36.818696228904209 ], [ -75.5860248333626, 36.818145637416514 ], [ -75.58733248814589, 36.817457398056888 ], [ -75.589641585761129, 36.816957319508397 ], [ -75.590985840264537, 36.816973322538196 ], [ -75.593010462862793, 36.817199308297027 ], [ -75.595625772429358, 36.817130484361066 ], [ -75.598791673483632, 36.816373421065478 ], [ -75.601200511242311, 36.815754005641814 ], [ -75.603058757513296, 36.815065766282196 ], [ -75.604028309553641, 36.814668886246629 ], [ -75.604764448924556, 36.814140786263138 ], [ -75.605742891015836, 36.812794576395433 ], [ -75.606191651248935, 36.81191111811733 ], [ -75.606445717796916, 36.811504611640565 ], [ -75.60686492760108, 36.811148918473393 ], [ -75.607601137286821, 36.810867506188487 ], [ -75.608908792070096, 36.810661034380601 ], [ -75.612349988868218, 36.810592210444639 ], [ -75.629693620730748, 36.810729858316563 ], [ -75.641668985588197, 36.810385738636747 ], [ -75.648042763364586, 36.810119948954082 ], [ -75.653781998317584, 36.809697499277128 ], [ -75.659700856810346, 36.809078083853464 ], [ -75.669405031781054, 36.807495133326327 ], [ -75.675736833889587, 36.807082189710556 ], [ -75.682137459934097, 36.80639395035093 ], [ -75.688331614170707, 36.805843358863228 ], [ -75.697003430101972, 36.805086295567648 ], [ -75.707189372624413, 36.804398056208022 ], [ -75.716136484299511, 36.804122760464175 ], [ -75.728387144900822, 36.803985112592244 ], [ -75.74091310124598, 36.804398056208022 ], [ -75.763625000113578, 36.804948647695717 ], [ -75.779248033577034, 36.805705710991305 ], [ -75.788608088867917, 36.806669246094778 ], [ -75.806089368602372, 36.806944541838632 ], [ -75.811595283479363, 36.807908076942105 ], [ -75.820198275474667, 36.809146907789426 ], [ -75.829833626509398, 36.810248090764823 ], [ -75.836991315849488, 36.81183104129196 ], [ -75.843691857653297, 36.812657295059047 ], [ -75.845622445481652, 36.812671810757003 ], [ -75.847582064705918, 36.812889546226359 ], [ -75.849585231024065, 36.813484689842625 ], [ -75.851237870593707, 36.814239879050646 ], [ -75.858017028286, 36.816373421065478 ], [ -75.867170611768998, 36.819539322119752 ], [ -75.873020646325813, 36.820296385415332 ], [ -75.904266713252738, 36.820502857223225 ], [ -75.90846497334644, 36.820227561479371 ], [ -75.912319113760333, 36.819264026375897 ], [ -75.92030269033198, 36.818851082760126 ], [ -75.935340720339752, 36.818300491272424 ], [ -75.944528963966391, 36.818067031749436 ], [ -75.946169918020047, 36.818026465593235 ], [ -75.947237970230972, 36.818111531698534 ], [ -75.948693545810457, 36.818338374645982 ], [ -75.951345280600194, 36.819056678397857 ], [ -75.95335297287528, 36.819491871810087 ], [ -75.954542501535371, 36.819811013645719 ], [ -75.955418690938671, 36.820170773533164 ], [ -75.957008597538021, 36.820710413364331 ], [ -75.9581575081463, 36.820954121675179 ], [ -75.960153595263733, 36.821087580988262 ], [ -75.967583252944749, 36.820843518021995 ] ] ] } },
{ "type": "Feature", "properties": { "id": null, "oss": "T2G07", "name": "W2Z02" }, "geometry": { "type": "MultiLineString", "coordinates": [ [ [ -75.41551798582078, 36.915318641829856 ], [ -75.415640550493308, 36.91332349120453 ], [ -75.416005331483319, 36.910961100031066 ], [ -75.417239073962349, 36.906594676602651 ], [ -75.417699965659352, 36.904151950608544 ], [ -75.418115491919806, 36.8987699666814 ], [ -75.418397136951796, 36.893418711073814 ], [ -75.419382894563711, 36.885673472694407 ], [ -75.42001659588567, 36.879547693248881 ], [ -75.420658451409622, 36.874668050334705 ], [ -75.422058522367507, 36.867859424421773 ], [ -75.42276263494746, 36.866451199261881 ], [ -75.423889215075363, 36.865324619133972 ], [ -75.425015795203279, 36.86469091781202 ], [ -75.428465946845023, 36.864127627748061 ], [ -75.432761033582693, 36.863845982716086 ], [ -75.439098046802201, 36.863634748942097 ], [ -75.446209583859655, 36.86314187013614 ], [ -75.462685818230383, 36.862578580072181 ], [ -75.468952420191911, 36.862085701266217 ], [ -75.471909693027683, 36.862085701266217 ], [ -75.473881208251527, 36.861522411202266 ], [ -75.47613436850736, 36.860747887364326 ], [ -75.479021230085138, 36.858353904592505 ], [ -75.483668373112778, 36.855959921820691 ], [ -75.48845633865642, 36.854622107918793 ], [ -75.497116923389754, 36.853073060242913 ], [ -75.507009705137989, 36.851171956277057 ], [ -75.513135484583515, 36.849552497343183 ], [ -75.522218536864827, 36.847651393377326 ], [ -75.544961373197083, 36.842722605317711 ], [ -75.548833992386776, 36.841666436447788 ], [ -75.554607715542332, 36.840187800029902 ], [ -75.557776222152086, 36.839342864933968 ], [ -75.562352953921746, 36.837864228516082 ], [ -75.565028581725542, 36.837441760968112 ], [ -75.567070508207379, 36.836667237130172 ], [ -75.569253257205204, 36.835118189454292 ], [ -75.572210530040991, 36.833498730520418 ], [ -75.57601273797269, 36.831245570264585 ], [ -75.577843430680559, 36.830048578878682 ], [ -75.580096590936378, 36.826175959688975 ], [ -75.582032900531232, 36.822092106725293 ], [ -75.583581948207112, 36.820120591501443 ], [ -75.585975930978933, 36.817797019987623 ], [ -75.586873061605274, 36.817149355866022 ], [ -75.588265325198108, 36.81687730435938 ], [ -75.590921828145326, 36.81633320134609 ], [ -75.593721169358332, 36.816107149795748 ], [ -75.59879077993395, 36.815050980925832 ], [ -75.60125517396375, 36.814487690861874 ], [ -75.603578745477577, 36.813361110733965 ], [ -75.604660900297361, 36.812558987814668 ], [ -75.60546120992349, 36.811758678188539 ], [ -75.605931233037253, 36.810932961907611 ], [ -75.606325036186618, 36.810335905519864 ], [ -75.606922092574365, 36.81004372898969 ], [ -75.60806539204026, 36.809815069096516 ], [ -75.610244012689179, 36.809561002548534 ], [ -75.612365468364786, 36.809535595893735 ], [ -75.618815109091216, 36.80978796215684 ], [ -75.628469125178668, 36.809840547834234 ], [ -75.643564840456492, 36.809090979434778 ], [ -75.648888389997097, 36.808643556448324 ], [ -75.659450078696295, 36.807728210094396 ], [ -75.669448477331528, 36.806179162418516 ], [ -75.680643867352657, 36.805263816064581 ], [ -75.691944874260798, 36.804489292226641 ], [ -75.702436151701988, 36.80350353461472 ], [ -75.715743879462963, 36.803010655808755 ], [ -75.720179788716635, 36.802869833292768 ], [ -75.727572970806065, 36.802799422034774 ], [ -75.741443988630991, 36.803292300840738 ], [ -75.75594870777789, 36.803926002162683 ], [ -75.772525631139786, 36.803903797959926 ], [ -75.780311003044019, 36.804348469710654 ], [ -75.790098167905256, 36.805193404806587 ], [ -75.798336285090627, 36.805545461096564 ], [ -75.806926458565968, 36.805897517386533 ], [ -75.814882930719364, 36.807235331288432 ], [ -75.829106004834273, 36.809136435254288 ], [ -75.84028066863327, 36.811104115377589 ], [ -75.842153193669787, 36.811292819451033 ], [ -75.844345064061386, 36.811568617712233 ], [ -75.846798217016214, 36.811771837483633 ], [ -75.849947737200665, 36.81244576438003 ], [ -75.860403809012865, 36.816107149795748 ], [ -75.867374523554332, 36.818430721309575 ], [ -75.870331796390104, 36.818994011373526 ], [ -75.873922770547821, 36.819486890179491 ], [ -75.8782882685435, 36.819416478921497 ], [ -75.904446050888481, 36.819557301437484 ], [ -75.908600315110164, 36.818994011373526 ], [ -75.910466213447023, 36.818782777599544 ], [ -75.914479655152718, 36.818149076277592 ], [ -75.919760499502317, 36.817867431245617 ], [ -75.927857794171686, 36.817656197471635 ], [ -75.939440446111803, 36.816952084891689 ], [ -75.946897705809789, 36.817308129592966 ], [ -75.947918499073339, 36.817478261803558 ], [ -75.949270104968576, 36.817752363698396 ], [ -75.950987892422916, 36.818219487535586 ], [ -75.955058931051227, 36.819300386708704 ], [ -75.957542434790355, 36.820199786427317 ], [ -75.958714555713954, 36.820524730841782 ], [ -75.959805440533955, 36.820646584997206 ], [ -75.96279352107895, 36.820794219691514 ], [ -75.967571005728061, 36.820774117127442 ] ] ] } },
{ "type": "Feature", "properties": { "id": null, "oss": "T2G07", "name": "W2Z03" }, "geometry": { "type": "MultiLineString", "coordinates": [ [ [ -75.41538119316101, 36.91531971407522 ], [ -75.415397363166619, 36.912281259804473 ], [ -75.415718131362254, 36.909774829311949 ], [ -75.416409468907744, 36.906871211620846 ], [ -75.416824271435047, 36.904751109814647 ], [ -75.417088733892967, 36.901065206433245 ], [ -75.417419748271286, 36.896651681389024 ], [ -75.41896448203677, 36.879659609968783 ], [ -75.420509215802241, 36.867853430475492 ], [ -75.421226413621923, 36.865977682331703 ], [ -75.422274625819924, 36.864708793881491 ], [ -75.424426219278985, 36.863550243557384 ], [ -75.426632981801092, 36.86310889105296 ], [ -75.43209471904332, 36.862722707611589 ], [ -75.441804474140596, 36.862446862296324 ], [ -75.462272196533149, 36.861508988224429 ], [ -75.469333836603894, 36.861122804783058 ], [ -75.47247847319791, 36.860791790404747 ], [ -75.474464559467805, 36.860350437900323 ], [ -75.476671321989912, 36.859412563828428 ], [ -75.478436732007609, 36.857867830062951 ], [ -75.481140016097186, 36.85571623660389 ], [ -75.483953638312883, 36.854337010027571 ], [ -75.485884555519718, 36.853674981270942 ], [ -75.488146487104885, 36.852737107199047 ], [ -75.491760060734833, 36.85224058563157 ], [ -75.495842571400729, 36.851909571253252 ], [ -75.499428560499169, 36.851247542496623 ], [ -75.507952180740816, 36.849757977794198 ], [ -75.515455173315985, 36.847937398713455 ], [ -75.522902996828108, 36.846392664947977 ], [ -75.535288451483424, 36.84418590242587 ], [ -75.544115501571866, 36.842199816155976 ], [ -75.549935837723922, 36.840268898949127 ], [ -75.55434936276815, 36.83911034862502 ], [ -75.559038733127622, 36.838117305490073 ], [ -75.562679891289108, 36.837234600481224 ], [ -75.565328006315639, 36.836682909850701 ], [ -75.567948536810633, 36.835745035778807 ], [ -75.576168727205498, 36.830614312914904 ], [ -75.578872011295076, 36.827469676320902 ], [ -75.580471914123606, 36.823938856285523 ], [ -75.582623507582667, 36.819911514682673 ], [ -75.584698684940491, 36.817735143557314 ], [ -75.586279281862815, 36.816903250440305 ], [ -75.587892153104193, 36.816491032773406 ], [ -75.592140170959254, 36.815553158701505 ], [ -75.596498526940422, 36.814946299007929 ], [ -75.60033961118414, 36.814044768084322 ], [ -75.603047577717703, 36.812622504451667 ], [ -75.604089250564414, 36.811796788170739 ], [ -75.605022147182069, 36.81069828115286 ], [ -75.605683518152986, 36.809815069096516 ], [ -75.605950288028353, 36.809497485911542 ], [ -75.606420311142116, 36.80930693600056 ], [ -75.607118994149062, 36.809192606053969 ], [ -75.609253153152068, 36.809014759470379 ], [ -75.611692192012654, 36.808951242833388 ], [ -75.61889497864783, 36.80929423267316 ], [ -75.626207067394304, 36.809263885513488 ], [ -75.635309962798004, 36.80893287113517 ], [ -75.657818940523526, 36.807332968306646 ], [ -75.667363188431651, 36.805898572667274 ], [ -75.678286662916079, 36.804629684217062 ], [ -75.688051587076416, 36.804353838901797 ], [ -75.703167910352846, 36.802974612325478 ], [ -75.719497953016457, 36.802312583568842 ], [ -75.727469882627574, 36.802312583568842 ], [ -75.746723885632974, 36.803084950451584 ], [ -75.756350887135667, 36.803415964829895 ], [ -75.771220766553085, 36.803331802524653 ], [ -75.780763197536501, 36.80385731733432 ], [ -75.791465995768732, 36.804850360469267 ], [ -75.801644687901955, 36.805126205784532 ], [ -75.806444396387548, 36.805181374847585 ], [ -75.815547291791248, 36.806450263297798 ], [ -75.820843521844296, 36.807388137369699 ], [ -75.828622359734723, 36.808546687693806 ], [ -75.834746125733588, 36.809319054576541 ], [ -75.840594046417166, 36.810477604900647 ], [ -75.845117909587501, 36.811139633657284 ], [ -75.849807279946987, 36.81174649335086 ], [ -75.852289887784352, 36.812187845855284 ], [ -75.856455152044845, 36.813732579620762 ], [ -75.862358241791483, 36.816435863710346 ], [ -75.866882104961817, 36.817815090286665 ], [ -75.872727440247132, 36.818958616706539 ], [ -75.883831547096307, 36.819196902261247 ], [ -75.904467076133642, 36.819292216483127 ], [ -75.912378156549806, 36.818053131598667 ], [ -75.917167696199343, 36.817385932045497 ], [ -75.921552150405887, 36.817385932045497 ], [ -75.9394712241196, 36.816528104048565 ], [ -75.946718121809724, 36.816901702645445 ], [ -75.951147216300072, 36.817576560489265 ], [ -75.954287188066871, 36.818435802463071 ], [ -75.955523137357602, 36.81889420619062 ], [ -75.957907997256626, 36.819956078116462 ], [ -75.958720358292794, 36.820211391584976 ], [ -75.959474693540656, 36.820350653476886 ], [ -75.967558758511373, 36.820716963449577 ] ] ] } },

{ "type": "Feature", "properties": { "id": null, "oss": "T3G15", "name": "W3Z03" }, "geometry": { "type": "MultiLineString", "coordinates": [ [ [ -75.29091194272043, 36.91567998766551 ], [ -75.290979860750909, 36.9141665695456 ], [ -75.291001573905078, 36.91393206748058 ], [ -75.29110145441426, 36.913580314383054 ], [ -75.293832228891191, 36.909003573164746 ], [ -75.297253176647473, 36.903604636658393 ], [ -75.300520100689596, 36.898821795008615 ], [ -75.305796494447861, 36.891433015645539 ], [ -75.309816183312122, 36.886011109735605 ], [ -75.31207998576177, 36.882981671985462 ], [ -75.314139039624564, 36.88003090188289 ], [ -75.316453343994965, 36.877784769734326 ], [ -75.317600519937201, 36.877290901073358 ], [ -75.318703005470027, 36.877047705735237 ], [ -75.321127400813879, 36.876943439506924 ], [ -75.337767043089187, 36.876943439506924 ], [ -75.340758439453282, 36.875915147006765 ], [ -75.34403027922653, 36.873952043142822 ], [ -75.350293515363859, 36.870212797687692 ], [ -75.359735110138047, 36.864790891777766 ], [ -75.363380874456809, 36.862360382231927 ], [ -75.36599834627539, 36.86142557086815 ], [ -75.370264369146611, 36.860688558165471 ], [ -75.382576387278306, 36.859690286425064 ], [ -75.406569159463515, 36.858527655640422 ], [ -75.422460952647796, 36.858247212231291 ], [ -75.445877977310531, 36.856938476322 ], [ -75.462611100722214, 36.856003664958216 ], [ -75.468954622594225, 36.855835848316261 ], [ -75.471818992655471, 36.855723221549084 ], [ -75.473141817949838, 36.855419901757756 ], [ -75.473969058792164, 36.854881891321675 ], [ -75.476399568337996, 36.853199230866871 ], [ -75.479017040156592, 36.85207745723033 ], [ -75.481541030838798, 36.851142645866553 ], [ -75.484816051358493, 36.849458001085871 ], [ -75.491582115376829, 36.84726734921108 ], [ -75.497072609949072, 36.846019509535573 ], [ -75.506313531979004, 36.844038079501814 ], [ -75.533983948346943, 36.838709654728255 ], [ -75.544310274109804, 36.836452738689985 ], [ -75.55230625107707, 36.835437814955021 ], [ -75.558662968350774, 36.834503003591237 ], [ -75.564560191374866, 36.833782640884728 ], [ -75.56978722357978, 36.832539899727294 ], [ -75.572544917102931, 36.83141812609076 ], [ -75.575816756876165, 36.829174578817685 ], [ -75.577566941998086, 36.82737040933263 ], [ -75.579742964604051, 36.823285267225863 ], [ -75.580864738240592, 36.820480833134518 ], [ -75.581893030740758, 36.818704691543331 ], [ -75.582366560712288, 36.817894385322205 ], [ -75.583116057028832, 36.816954339094686 ], [ -75.584030696601545, 36.816128622813757 ], [ -75.585034259466056, 36.815391829824627 ], [ -75.587127974377921, 36.813843672451668 ], [ -75.589651965060142, 36.811693606314968 ], [ -75.591428106651321, 36.810010945860164 ], [ -75.592967487426677, 36.808811506232004 ], [ -75.593971050291188, 36.808430406410032 ], [ -75.594980389833694, 36.808141323132595 ], [ -75.598252229606928, 36.807860879723464 ], [ -75.607319899835616, 36.807580436314332 ], [ -75.615826683246027, 36.807393474041575 ], [ -75.627901637773647, 36.807121963687948 ], [ -75.640225259840719, 36.805991256995902 ], [ -75.656304015297763, 36.804495558813848 ], [ -75.665339049027665, 36.803796548815811 ], [ -75.669414516503949, 36.803671424814347 ], [ -75.672953738259665, 36.803474801383473 ], [ -75.684535318483967, 36.802532454949912 ], [ -75.695472611440209, 36.801784605858884 ], [ -75.706690347805591, 36.800943275631482 ], [ -75.720992961671456, 36.800195426540455 ], [ -75.728845377127215, 36.800662832222343 ], [ -75.739081561560624, 36.801223719040614 ], [ -75.761236590882248, 36.801317200176996 ], [ -75.775585945316294, 36.801036756767857 ], [ -75.787271087363564, 36.801597643586128 ], [ -75.797927936910682, 36.802345492677155 ], [ -75.814333876345046, 36.804121634268334 ], [ -75.826486424074204, 36.806178219268659 ], [ -75.839433561462585, 36.808141323132595 ], [ -75.851443240362627, 36.810146079312382 ], [ -75.853954456109292, 36.810581550251108 ], [ -75.855173774737722, 36.810871864210256 ], [ -75.85610277940701, 36.811263788055115 ], [ -75.861775553056958, 36.81468500267907 ], [ -75.868187097956664, 36.816953941654489 ], [ -75.86946447937693, 36.817316834103423 ], [ -75.870625735213537, 36.817447475385045 ], [ -75.871946663727684, 36.817476506780956 ], [ -75.875564020672741, 36.817863361315929 ], [ -75.88453820976504, 36.818237285861443 ], [ -75.904122507836263, 36.818237285861443 ], [ -75.912722772383063, 36.816928549952145 ], [ -75.917770753747476, 36.815900257451986 ], [ -75.927025386248914, 36.815713295179229 ], [ -75.934270174318229, 36.815619814042854 ], [ -75.943711769092417, 36.815339370633716 ], [ -75.944988444335394, 36.815455578855435 ], [ -75.946084851914748, 36.815663518223936 ], [ -75.948198863638567, 36.816087219724743 ], [ -75.9525619275081, 36.8169860238635 ], [ -75.954551304150442, 36.817535127823604 ], [ -75.958381529314792, 36.818867380054677 ], [ -75.95980379858851, 36.819344470380663 ], [ -75.961082040593993, 36.819578514691528 ], [ -75.967455247212911, 36.82027164591986 ] ] ] } },
{ "type": "Feature", "properties": { "id": null, "oss": "T3G15", "name": "W3Z02" }, "geometry": { "type": "MultiLineString", "coordinates": [ [ [ -75.29104068875313, 36.9156767709445 ], [ -75.291043038224046, 36.914819975908806 ], [ -75.291112127919519, 36.914159785485417 ], [ -75.291157908615091, 36.913875613279743 ], [ -75.291257789124259, 36.913571629121385 ], [ -75.291390239340956, 36.913318032162337 ], [ -75.30223331415165, 36.898187943359055 ], [ -75.306695067977003, 36.89213978817358 ], [ -75.310561921292305, 36.887182283923188 ], [ -75.314825374947631, 36.881629879162752 ], [ -75.3170168511257, 36.879544511206646 ], [ -75.317924780388026, 36.879025694485314 ], [ -75.318844600848465, 36.878831561893364 ], [ -75.321465035030897, 36.878767648864525 ], [ -75.336503373481392, 36.878324692246032 ], [ -75.338210248586918, 36.878000692518448 ], [ -75.341405900028903, 36.87685025799933 ], [ -75.345368507816971, 36.8745493889611 ], [ -75.350417637095319, 36.871609389634472 ], [ -75.356808939979302, 36.868221999105963 ], [ -75.3623891143056, 36.864931213062214 ], [ -75.364925894641928, 36.863428521942978 ], [ -75.367491392089917, 36.86240780394062 ], [ -75.370375288228857, 36.861908668070413 ], [ -75.373618066564148, 36.861575044106623 ], [ -75.385697629014871, 36.860808087760546 ], [ -75.404711755094709, 36.860105044443308 ], [ -75.421393055621891, 36.859913305356791 ], [ -75.448044788648062, 36.858762870837673 ], [ -75.469519566338235, 36.85774026237624 ], [ -75.472947709555868, 36.857333255926875 ], [ -75.473945981296268, 36.85711141776234 ], [ -75.474694685101582, 36.8567232009744 ], [ -75.475859335465387, 36.855946767398528 ], [ -75.478499346890217, 36.854161132761206 ], [ -75.48284543285132, 36.851924176751815 ], [ -75.488725431504562, 36.849878959828942 ], [ -75.493838473811749, 36.848664612280992 ], [ -75.508410644387226, 36.845660699925517 ], [ -75.526114553375848, 36.842848526656567 ], [ -75.535893246788333, 36.840867222762533 ], [ -75.541814594758776, 36.839641662305176 ], [ -75.544873027340316, 36.838502440695464 ], [ -75.55190346051269, 36.837096354060989 ], [ -75.558997806713904, 36.835434615311151 ], [ -75.566124109429538, 36.834156354734354 ], [ -75.571812368996277, 36.832366789926844 ], [ -75.576286281015058, 36.829298964542531 ], [ -75.578213698799757, 36.826898104059737 ], [ -75.580061985238686, 36.823346604325792 ], [ -75.582773067189052, 36.818059528578388 ], [ -75.584132323220743, 36.816573239272721 ], [ -75.586711098682713, 36.814743960127281 ], [ -75.589773156469661, 36.812242517625329 ], [ -75.591852720410031, 36.810516087184268 ], [ -75.593183443992459, 36.809383155964952 ], [ -75.594275930148768, 36.808760692922405 ], [ -75.594991684848324, 36.808593471465812 ], [ -75.597149722899658, 36.808358049132941 ], [ -75.602211303056393, 36.80824033796651 ], [ -75.609823291819254, 36.807847967411718 ], [ -75.620221111521104, 36.807730256245286 ], [ -75.627911574394929, 36.807573308023372 ], [ -75.635170429658473, 36.806984752191191 ], [ -75.644096859779879, 36.806278485192571 ], [ -75.649786232824283, 36.805611455249434 ], [ -75.654667759188442, 36.805244412261338 ], [ -75.659222744666906, 36.804905188250821 ], [ -75.664951354766785, 36.804434343585079 ], [ -75.672857621445743, 36.80396349891933 ], [ -75.679449446766156, 36.80361036542002 ], [ -75.687637933574464, 36.802956430520261 ], [ -75.694869609569267, 36.802315542589227 ], [ -75.703619472941014, 36.801726986757046 ], [ -75.712663614228845, 36.801099193869391 ], [ -75.719726284215, 36.800746060370081 ], [ -75.724689771733054, 36.800785297425563 ], [ -75.729712114834328, 36.801216905035822 ], [ -75.734145902103407, 36.801373853257743 ], [ -75.74487723677683, 36.801844697923485 ], [ -75.761611840938471, 36.801844697923485 ], [ -75.775266336245053, 36.801687749701571 ], [ -75.780681049901105, 36.802080120256356 ], [ -75.789156253884499, 36.802668676088537 ], [ -75.801162792860978, 36.80361036542002 ], [ -75.806302847128677, 36.803767313641941 ], [ -75.812423827783348, 36.804473580640554 ], [ -75.818427097271581, 36.805376032916563 ], [ -75.829119194889515, 36.80718093746858 ], [ -75.843028731056705, 36.809378212575389 ], [ -75.849797123126777, 36.810594561295225 ], [ -75.853799302785603, 36.811104643016449 ], [ -75.856271237280751, 36.812007095292458 ], [ -75.858625460609474, 36.813341155178733 ], [ -75.861215106271075, 36.814832163286923 ], [ -75.865060337707973, 36.816205460228673 ], [ -75.867139901648343, 36.817029438393725 ], [ -75.868630909756533, 36.817539520114948 ], [ -75.870082680809247, 36.817853416558776 ], [ -75.874987312744082, 36.818088838891654 ], [ -75.877733906627583, 36.818245787113568 ], [ -75.884639628391838, 36.818598920612871 ], [ -75.900628728499385, 36.818598920612871 ], [ -75.904473959936297, 36.818520446501914 ], [ -75.909770962425924, 36.817696468336862 ], [ -75.916558973023726, 36.816440882561544 ], [ -75.918873959296974, 36.816126986117716 ], [ -75.922523005456483, 36.816244697284155 ], [ -75.927623822668707, 36.815930800840327 ], [ -75.935314285542532, 36.815930800840327 ], [ -75.940061969255453, 36.815813089673888 ], [ -75.943397118971134, 36.815656141451974 ], [ -75.944770415912885, 36.81585232672937 ], [ -75.947673958018314, 36.816323171395112 ], [ -75.950499026012778, 36.816911727227293 ], [ -75.952930997382921, 36.817391100555376 ], [ -75.954002200190345, 36.817697158500359 ], [ -75.955019392772172, 36.81799421474107 ], [ -75.959671981220865, 36.819526687283066 ], [ -75.960722247989054, 36.819712369805615 ], [ -75.961900171491479, 36.819834223961038 ], [ -75.967482252325695, 36.820379666371039 ] ] ] } },
{ "type": "Feature", "properties": { "id": null, "oss": "T3G15", "name": "W3Z01" }, "geometry": { "type": "MultiLineString", "coordinates": [ [ [ -75.2911077439785, 36.91567998766551 ], [ -75.291232297733373, 36.914445893725343 ], [ -75.291310285143922, 36.914001365485262 ], [ -75.291396071295509, 36.913767403253637 ], [ -75.291598838562919, 36.913432057388313 ], [ -75.295130182514299, 36.909207346415478 ], [ -75.299121948054704, 36.903789505510389 ], [ -75.305509130612336, 36.895269591631823 ], [ -75.309960522202601, 36.889065683667454 ], [ -75.315965642234644, 36.881538996059696 ], [ -75.316777144941682, 36.880666630649635 ], [ -75.31756809389212, 36.87985255863493 ], [ -75.318524662222075, 36.879301315868517 ], [ -75.319254248236433, 36.879106759598017 ], [ -75.320081112386063, 36.879025694485314 ], [ -75.321463573074809, 36.879023337667888 ], [ -75.335380844500449, 36.878840749558805 ], [ -75.337490751538738, 36.878516148475988 ], [ -75.33944272916149, 36.878407881557735 ], [ -75.341328353560044, 36.87799193499923 ], [ -75.343008969946567, 36.877096018738683 ], [ -75.346802745101954, 36.874904961429692 ], [ -75.350738533231066, 36.872957354932808 ], [ -75.353349209100784, 36.871586357998275 ], [ -75.359715781927648, 36.867986900852216 ], [ -75.367303332238407, 36.863888812181685 ], [ -75.369044259241662, 36.86329515659876 ], [ -75.370929883640201, 36.862990129122522 ], [ -75.373693916056297, 36.862793283527189 ], [ -75.387541893570742, 36.862069411975284 ], [ -75.396385715574283, 36.861502903804244 ], [ -75.408266650828139, 36.860999340985536 ], [ -75.429164507804472, 36.860432832814489 ], [ -75.456372636352725, 36.859268343796231 ], [ -75.472000268829291, 36.858742323543908 ], [ -75.473835062214008, 36.858525636061252 ], [ -75.47557096881593, 36.858040909425632 ], [ -75.476609567129515, 36.857537346606925 ], [ -75.477679638119255, 36.856782002378864 ], [ -75.478938545166031, 36.855586040684436 ], [ -75.480701015031499, 36.854264188285327 ], [ -75.483533555886723, 36.852533191096029 ], [ -75.48732601336512, 36.851274284049261 ], [ -75.493589075922785, 36.849669177564628 ], [ -75.498184086643477, 36.848693524603384 ], [ -75.507012172308933, 36.846899582061738 ], [ -75.528854209570341, 36.84312286092144 ], [ -75.540829562852721, 36.840888300913427 ], [ -75.55310390655869, 36.837646615268 ], [ -75.564591433360448, 36.83506585582213 ], [ -75.569447311128698, 36.833762950944994 ], [ -75.571704258174677, 36.832673932433273 ], [ -75.574757107763091, 36.830659681158444 ], [ -75.576362214247723, 36.829589610168689 ], [ -75.578039516162448, 36.827812562905599 ], [ -75.579004321244909, 36.826325140189908 ], [ -75.580654170280937, 36.822720131975913 ], [ -75.581804954661948, 36.820359849725072 ], [ -75.583420936886398, 36.817716538738615 ], [ -75.584253307146028, 36.816930981977571 ], [ -75.585850314042119, 36.81578019759656 ], [ -75.587587628273226, 36.814655036835489 ], [ -75.589930901515601, 36.81278580966638 ], [ -75.592925289445787, 36.81010847457587 ], [ -75.593683484789196, 36.809654295054955 ], [ -75.594486844715547, 36.809290870326372 ], [ -75.596342223593055, 36.808889190363203 ], [ -75.5990392176315, 36.80852576563462 ], [ -75.604203674300848, 36.808391872313564 ], [ -75.608287420593101, 36.808257978992501 ], [ -75.618338983481053, 36.808066702819566 ], [ -75.625894392312162, 36.808047575202274 ], [ -75.632072612698096, 36.807703278090983 ], [ -75.639675840572423, 36.807167704806751 ], [ -75.64706866465653, 36.806479110584171 ], [ -75.657867358654471, 36.805476785406917 ], [ -75.661146590984856, 36.80519756022548 ], [ -75.667563906586963, 36.804738497410426 ], [ -75.671724163348401, 36.804298562212665 ], [ -75.680245516852835, 36.803782116545733 ], [ -75.691123530758134, 36.80311730423643 ], [ -75.69668570391697, 36.802596204273506 ], [ -75.701065928277274, 36.802118013841159 ], [ -75.706890287743278, 36.801811971964462 ], [ -75.714636972747329, 36.801314653914815 ], [ -75.720394385552794, 36.801085122507288 ], [ -75.723406985276583, 36.801065994889996 ], [ -75.726199617401491, 36.801104250124581 ], [ -75.728208017217355, 36.801295526297523 ], [ -75.733362910078071, 36.80162069579152 ], [ -75.735696479387926, 36.801697206260698 ], [ -75.741865135965213, 36.801964992902811 ], [ -75.747909463030112, 36.802194524310337 ], [ -75.752002773130997, 36.802156269075752 ], [ -75.756019572762725, 36.802232779544923 ], [ -75.763144610204705, 36.802194524310337 ], [ -75.775367157655523, 36.801984120520103 ], [ -75.783439012153565, 36.802634459508099 ], [ -75.788852127847747, 36.803131777557738 ], [ -75.799257551655643, 36.803743861311141 ], [ -75.802662267533961, 36.804069030805138 ], [ -75.806057419603633, 36.804107286039731 ], [ -75.810820196309805, 36.804585476472077 ], [ -75.821742065784647, 36.806287834411229 ], [ -75.825051143576488, 36.80697642863381 ], [ -75.841204416381217, 36.809386508412842 ], [ -75.84489604651894, 36.81005597501813 ], [ -75.850701278367637, 36.810993228265531 ], [ -75.853847771412504, 36.811452291080585 ], [ -75.854995428450138, 36.811853971043753 ], [ -75.857692422488569, 36.813116393785151 ], [ -75.862225667787243, 36.815449963095006 ], [ -75.867332741604713, 36.817247959120635 ], [ -75.869608928062689, 36.817936553343216 ], [ -75.871502562174783, 36.818166084750743 ], [ -75.874955097096347, 36.818491254244741 ], [ -75.877977260628782, 36.818701658034975 ], [ -75.879450087160407, 36.818701658034975 ], [ -75.887024623608809, 36.818854678973324 ], [ -75.902326717443941, 36.818854678973324 ], [ -75.905348880976405, 36.81873991326956 ], [ -75.909212659669763, 36.81805131904698 ], [ -75.915467390524867, 36.816903662009345 ], [ -75.917533173192609, 36.81659762013264 ], [ -75.919063382576127, 36.816425471576999 ], [ -75.925758048629007, 36.816501982046169 ], [ -75.93099901576754, 36.816234195404057 ], [ -75.936459950504954, 36.81625332302135 ], [ -75.939711645444916, 36.816081174465708 ], [ -75.943518041286424, 36.816042919231123 ], [ -75.946348928645918, 36.816425471576999 ], [ -75.951073450117505, 36.817247959120635 ], [ -75.952435903648407, 36.817508122710812 ], [ -75.953336074074812, 36.817706160204622 ], [ -75.956558684201312, 36.818741356194977 ], [ -75.959355740674638, 36.819613725965525 ], [ -75.960104273343674, 36.819764593015094 ], [ -75.960893424064523, 36.819863236855198 ], [ -75.967493857483348, 36.820460902474665 ] ] ] } },

{ "type": "Feature", "properties": { "id": null, "oss": "T1L11", "name": "W1Z03" }, "geometry": { "type": "MultiLineString", "coordinates": [ [ [ -75.34525483846666, 36.853812388633536 ], [ -75.345426800106338, 36.851489018748659 ], [ -75.345494771630015, 36.85095719521243 ], [ -75.345627092323596, 36.850418460960014 ], [ -75.345797218929619, 36.850144368094753 ], [ -75.345986248491869, 36.849936435576282 ], [ -75.34625088987903, 36.849771034709306 ], [ -75.347118756687379, 36.849387093597741 ], [ -75.347621465647791, 36.849254434288746 ], [ -75.348228905641619, 36.849219523944271 ], [ -75.407452345881836, 36.847712235525101 ], [ -75.459331075446826, 36.846560973842664 ], [ -75.482500216805946, 36.845409712160219 ], [ -75.492501802672152, 36.843826727346865 ], [ -75.500272819028623, 36.841883973257744 ], [ -75.509914635619054, 36.839797311458319 ], [ -75.513224512956072, 36.839149726761946 ], [ -75.534271015588189, 36.834904449307949 ], [ -75.547150755660496, 36.832673879798215 ], [ -75.551180171549035, 36.832314110522454 ], [ -75.556360849120026, 36.831450664260622 ], [ -75.561973249821918, 36.830515264143642 ], [ -75.56787346594443, 36.829004233185437 ], [ -75.571327250991757, 36.828284694633908 ], [ -75.572588187327327, 36.827518330292925 ], [ -75.573841306792772, 36.826052416955989 ], [ -75.575284713025141, 36.823319878628389 ], [ -75.575860343866367, 36.821089309118662 ], [ -75.577371374824565, 36.818139201057406 ], [ -75.579170221203384, 36.815908631547678 ], [ -75.581232041151125, 36.81376408356946 ], [ -75.587876637676828, 36.808785199887581 ], [ -75.589261347552679, 36.807634016951347 ], [ -75.59071279909449, 36.806861968258893 ], [ -75.592009840897816, 36.806491384886513 ], [ -75.594214929434187, 36.806231814968072 ], [ -75.596439146439991, 36.806050953391782 ], [ -75.619896103219716, 36.804036245447513 ], [ -75.63558204364297, 36.803244753040829 ], [ -75.639359392831935, 36.802975943010502 ], [ -75.642309729099736, 36.802309352923849 ], [ -75.645641435994065, 36.801680701689605 ], [ -75.648868456965118, 36.801468397678349 ], [ -75.65368793546655, 36.801362042399582 ], [ -75.657879476575289, 36.801115477976921 ], [ -75.663799138045775, 36.801171855705206 ], [ -75.671415063508931, 36.800726368110496 ], [ -75.681704464795743, 36.800582460400186 ], [ -75.690482835124357, 36.800006829558967 ], [ -75.701121194173965, 36.798634857932143 ], [ -75.708168410210249, 36.797732814279499 ], [ -75.711536617854264, 36.797486724170511 ], [ -75.714521719032064, 36.797486724170511 ], [ -75.733603083810678, 36.797909591698037 ], [ -75.742217656979022, 36.798423844745614 ], [ -75.75383820458616, 36.798351890890459 ], [ -75.764559329003887, 36.798495798600769 ], [ -75.777851282377057, 36.798578480203865 ], [ -75.788483985842106, 36.799431198717748 ], [ -75.799443952312245, 36.800157056595992 ], [ -75.813002795966071, 36.800608078422314 ], [ -75.816498215120063, 36.801284611161797 ], [ -75.820683336022867, 36.80266912219961 ], [ -75.830037337192707, 36.804324060868119 ], [ -75.837088814997642, 36.805187507129951 ], [ -75.841868192850711, 36.805682073968441 ], [ -75.844428108223212, 36.806194861102085 ], [ -75.852459339219664, 36.807736473451428 ], [ -75.85542054160301, 36.808186460088109 ], [ -75.856581797439617, 36.808563868235005 ], [ -75.857811525281576, 36.809360830728799 ], [ -75.862848295142257, 36.812526800355506 ], [ -75.867165526451416, 36.814325646734325 ], [ -75.871607444523846, 36.815717309604118 ], [ -75.878880171473284, 36.815886442788987 ], [ -75.894472014481792, 36.815836677692523 ], [ -75.900847064110678, 36.815898676932385 ], [ -75.905535128747502, 36.815825993759724 ], [ -75.909330485570791, 36.814613462154931 ], [ -75.911561055080526, 36.813678062037951 ], [ -75.914798978562388, 36.813030477341577 ], [ -75.919260117581842, 36.812958523486422 ], [ -75.937284558297563, 36.812526800355506 ], [ -75.944407989957654, 36.812526800355506 ], [ -75.948041372336533, 36.812799626012342 ], [ -75.951425112969375, 36.813338378012546 ], [ -75.952549875917157, 36.813697546012676 ], [ -75.953395811075353, 36.81408506938125 ], [ -75.954161406023005, 36.814510399907725 ], [ -75.957076167649191, 36.816494729094771 ], [ -75.95902323628151, 36.817595862568872 ], [ -75.960059749021397, 36.818147589266459 ], [ -75.960994642731194, 36.818467262599484 ], [ -75.962418093799002, 36.818774872787863 ], [ -75.965759584864927, 36.81944437731552 ], [ -75.967365016024928, 36.819776506041016 ] ] ] } },
{ "type": "Feature", "properties": { "id": null, "oss": "T1L11", "name": "W1Z02" }, "geometry": { "type": "MultiLineString", "coordinates": [ [ [ -75.34539163112642, 36.853808096195536 ], [ -75.345508729848405, 36.852185421556165 ], [ -75.345612032566649, 36.851209388976841 ], [ -75.345702704148493, 36.850796520084522 ], [ -75.34587283075453, 36.850446815394356 ], [ -75.346033505882431, 36.850257785832106 ], [ -75.346378484833551, 36.850007321662126 ], [ -75.346633674742591, 36.849860823751378 ], [ -75.347025911084259, 36.849728503057804 ], [ -75.347640257161572, 36.849600908103284 ], [ -75.350857654580452, 36.849477860493373 ], [ -75.358049130655502, 36.849587327462167 ], [ -75.390302288525177, 36.849042203667182 ], [ -75.41147126256358, 36.8487151293902 ], [ -75.435602075888042, 36.847915614490894 ], [ -75.470689877491623, 36.846716342141939 ], [ -75.484517851090956, 36.845880485656302 ], [ -75.490350675697243, 36.845044629170665 ], [ -75.497219235513995, 36.843409257785723 ], [ -75.509193788210396, 36.840719980397154 ], [ -75.514536001401211, 36.839557049634529 ], [ -75.529690442901668, 36.83694045541862 ], [ -75.538739497898348, 36.835087034515688 ], [ -75.54784306527452, 36.833415321544422 ], [ -75.551658931839384, 36.832942880922104 ], [ -75.560871523974541, 36.83159824222782 ], [ -75.566032029233696, 36.830217261947197 ], [ -75.569538992314733, 36.829454088634229 ], [ -75.571595149260375, 36.828913312339367 ], [ -75.573064126188939, 36.828145791526275 ], [ -75.574263398537894, 36.826619444900331 ], [ -75.575753403577508, 36.824293583375081 ], [ -75.576843651167479, 36.820913815846204 ], [ -75.578042923516435, 36.818515271148293 ], [ -75.579115000313223, 36.816952582936011 ], [ -75.580707048040253, 36.815447149719013 ], [ -75.582837902431436, 36.813362618249378 ], [ -75.584820629367357, 36.811973785608529 ], [ -75.587891493412414, 36.80968426566961 ], [ -75.589127107347693, 36.808594018079653 ], [ -75.590481184486762, 36.807726662794444 ], [ -75.591963517976282, 36.807078141892781 ], [ -75.593306389775876, 36.806813280349381 ], [ -75.599666167383987, 36.806413522899732 ], [ -75.612912675602018, 36.805359616896098 ], [ -75.618836354174135, 36.804996201032779 ], [ -75.630447491007217, 36.804487418824131 ], [ -75.640005328212538, 36.803760587097493 ], [ -75.644749759146805, 36.80282714335037 ], [ -75.648783535360607, 36.802529917734617 ], [ -75.652506833910763, 36.802197898885218 ], [ -75.656140992543953, 36.802197898885218 ], [ -75.665789683715118, 36.801798141435562 ], [ -75.672821780670361, 36.801543750331241 ], [ -75.677655211652521, 36.801398383985912 ], [ -75.689375373244602, 36.800707893845605 ], [ -75.694717586435402, 36.800126428464289 ], [ -75.706256040095823, 36.798818131356342 ], [ -75.710696499558722, 36.798362592180766 ], [ -75.71550483618644, 36.798237468179302 ], [ -75.720592795903812, 36.798236665975026 ], [ -75.730786610869941, 36.798491057079353 ], [ -75.73985383665979, 36.799072522460662 ], [ -75.744541901296614, 36.799181547219661 ], [ -75.757315968892328, 36.799254230392322 ], [ -75.769962840935875, 36.79936325515132 ], [ -75.778539455310238, 36.799472279910312 ], [ -75.786171188439951, 36.800017403705297 ], [ -75.796764760855737, 36.800598869086606 ], [ -75.809102729415471, 36.801325700813251 ], [ -75.813518232154806, 36.801471067158573 ], [ -75.81628019271605, 36.802052532539889 ], [ -75.819005811690943, 36.802815705852865 ], [ -75.821513381147852, 36.803506195993172 ], [ -75.823839242673102, 36.803942295029152 ], [ -75.833615129396421, 36.805432300068766 ], [ -75.840047590177193, 36.806122790209074 ], [ -75.844990045918351, 36.807067671453709 ], [ -75.849968843245833, 36.808230602216334 ], [ -75.853976229656226, 36.808476774047271 ], [ -75.854890718627544, 36.808621931026842 ], [ -75.855972138125395, 36.809042886267605 ], [ -75.856891915442091, 36.809611582496949 ], [ -75.860308024557298, 36.811683052917871 ], [ -75.863251693050188, 36.813318424302814 ], [ -75.870338302384937, 36.815971360105053 ], [ -75.871501233147555, 36.816298434382041 ], [ -75.873609045154822, 36.816407459141033 ], [ -75.881022728766553, 36.816371117554702 ], [ -75.886255917198369, 36.816371117554702 ], [ -75.889163244104921, 36.816371117554702 ], [ -75.905153542091014, 36.81666185024536 ], [ -75.906716230303303, 36.816407459141033 ], [ -75.908387943274576, 36.815935018518715 ], [ -75.909950631486851, 36.815426236310067 ], [ -75.912349176184762, 36.814663062997099 ], [ -75.9150566243665, 36.814117939202113 ], [ -75.917055411614754, 36.814008914443122 ], [ -75.920871278179618, 36.813863548097792 ], [ -75.92523226853946, 36.813681840166133 ], [ -75.937479383133365, 36.813500132234473 ], [ -75.945056603883586, 36.813354765889144 ], [ -75.947091732718178, 36.813500132234473 ], [ -75.949781010106747, 36.813718181752463 ], [ -75.951491275495712, 36.814018906854898 ], [ -75.952526246443455, 36.81433081590766 ], [ -75.953868400549212, 36.81492627864472 ], [ -75.95541395598822, 36.815898676932385 ], [ -75.957521767995473, 36.817170632454008 ], [ -75.959299701123712, 36.818200777095413 ], [ -75.959984955860804, 36.818512686148161 ], [ -75.961010560283341, 36.818806003838951 ], [ -75.964135936707905, 36.81942381080659 ], [ -75.967397521758357, 36.819968261727659 ] ] ] } },
{ "type": "Feature", "properties": { "id": null, "oss": "T1L11", "name": "W1Z01" }, "geometry": { "type": "MultiLineString", "coordinates": [ [ [ -75.34546405076982, 36.853811315524055], [ -75.34555620623776, 36.852866393791167 ], [ -75.345702704148493, 36.851788925286336 ], [ -75.345801944668679, 36.85125491677298 ], [ -75.345905910927925, 36.850909937821875 ], [ -75.346094940490175, 36.850593313305104 ], [ -75.346411565006946, 36.850281414527387 ], [ -75.34681325282672, 36.850097110704191 ], [ -75.347243295080844, 36.850012047401179 ], [ -75.347588801638224, 36.849968708959068 ], [ -75.356259954863162, 36.850255758259578 ], [ -75.377421129088603, 36.85050817783285 ], [ -75.38734963230371, 36.850213688330705 ], [ -75.42498118368475, 36.849414359682029 ], [ -75.457627448493795, 36.848236401673454 ], [ -75.473256427071846, 36.847731562526924 ], [ -75.480197965336657, 36.847226723380395 ], [ -75.489579559476354, 36.845838415727435 ], [ -75.501443279419846, 36.843314219994774 ], [ -75.535498886846284, 36.837003730663135 ], [ -75.543365963546407, 36.835068513934765 ], [ -75.548835054300483, 36.83410090557058 ], [ -75.552789627614985, 36.83342778670854 ], [ -75.561939837145886, 36.83216568884221 ], [ -75.567324788042214, 36.83094566090476 ], [ -75.572331109578656, 36.82951528332292 ], [ -75.57405410066427, 36.828369505778888 ], [ -75.575738773817747, 36.826402108585981 ], [ -75.577211221328454, 36.823835842924446 ], [ -75.578262969550394, 36.821017157689646 ], [ -75.579693347132235, 36.818745381530256 ], [ -75.581278364072674, 36.816666986653097 ], [ -75.583479640731227, 36.814664598429133 ], [ -75.586130046250517, 36.812519032056372 ], [ -75.587939053192244, 36.810920374759021 ], [ -75.589909868454342, 36.809347965048602 ], [ -75.591701021420846, 36.808050923245275 ], [ -75.592334101348655, 36.807695780846743 ], [ -75.5932296778319, 36.807386961369765 ], [ -75.595238185852523, 36.807134081160036 ], [ -75.601969374472944, 36.806755451800143 ], [ -75.610130940675191, 36.806250612653606 ], [ -75.620984982325623, 36.805871983293713 ], [ -75.630492786251963, 36.805156794502793 ], [ -75.640210939822694, 36.804609885427382 ], [ -75.647089373194191, 36.804020906423098 ], [ -75.654493680676651, 36.803305717632178 ], [ -75.658953093137697, 36.802842948414522 ], [ -75.672962379453935, 36.802253969410238 ], [ -75.681376365229454, 36.801749130263708 ], [ -75.690379330009279, 36.801118081330543 ], [ -75.701485791232969, 36.799940123321967 ], [ -75.712339832883387, 36.799182864602173 ], [ -75.717262014562081, 36.798930445028908 ], [ -75.722731105316171, 36.799014584886663 ], [ -75.731229230949452, 36.799477354104319 ], [ -75.740863244662421, 36.799982193250848 ], [ -75.747804782927247, 36.800234612824113 ], [ -75.762403048247776, 36.800024263179722 ], [ -75.770564614450024, 36.799898053393093 ], [ -75.779672754052044, 36.800150472966358 ], [ -75.78939090762276, 36.800739451970642 ], [ -75.79761557871835, 36.801160151259417 ], [ -75.804178487623247, 36.801749130263708 ], [ -75.810341732203824, 36.802085689694728 ], [ -75.814085955873935, 36.802338109267993 ], [ -75.815937032744543, 36.802800878485648 ], [ -75.820480585063336, 36.804020906423098 ], [ -75.825339661848702, 36.804820235071773 ], [ -75.833122598691062, 36.806040263009223 ], [ -75.839454122987149, 36.806671311942388 ], [ -75.841515549502148, 36.807049941302282 ], [ -75.843282486515008, 36.807554780448818 ], [ -75.847110850042867, 36.808438248955248 ], [ -75.849424696131138, 36.808816878315142 ], [ -75.854085097390907, 36.80911546475739 ], [ -75.85526086892547, 36.809521904300205 ], [ -75.859248024524064, 36.812014192909842 ], [ -75.863286737696313, 36.813949409638212 ], [ -75.868482373912713, 36.816094976010966 ], [ -75.871637618578532, 36.816852234730767 ], [ -75.875381842248643, 36.816936374588522 ], [ -75.888318345378508, 36.816936374588522 ], [ -75.904620442818583, 36.817188794161787 ], [ -75.907986037128794, 36.816641885086376 ], [ -75.913139603416312, 36.815211507504536 ], [ -75.9174728060907, 36.814748738286887 ], [ -75.924624693999903, 36.814496318713623 ], [ -75.940379882364567, 36.814033549495967 ], [ -75.945449308794323, 36.813991479567086 ], [ -75.948520413602395, 36.814201829211477 ], [ -75.951044609335057, 36.814580458571378 ], [ -75.952271048127557, 36.814841212539427 ], [ -75.953206775285807, 36.815285446644857 ], [ -75.955167462365054, 36.816599815157502 ], [ -75.958356885123365, 36.818300020884934 ], [ -75.959252442176322, 36.818668640674538 ], [ -75.960018037123973, 36.818919113095681 ], [ -75.960774180282158, 36.819084519411533 ], [ -75.962307733124845, 36.819344443622164 ], [ -75.967411699442579, 36.820110038569823 ] ] ] } }
]
}
